[{"OBJECT_NAME":"STARLINK-34409","OBJECT_ID":"2025-133P","EPOCH":"2026-03-09T08:31:02.337888","MEAN_MOTION":15.3018738,"ECCENTRICITY":0.0001142,"INCLINATION":53.1572,"RA_OF_ASC_NODE":118.5967,"ARG_OF_PERICENTER":76.8573,"MEAN_ANOMALY":283.2555,"EPHEMERIS_TYPE":0,"CLASSIFICATION_TYPE":"U","NORAD_CAT_ID":64485,"ELEMENT_SET_NO":999,"REV_AT_EPOCH":4113,"BSTAR":0.00014323762,"MEAN_MOTION_DOT":3.884e-5,"MEAN_MOTION_DDOT":0},{"OBJECT_NAME":"USA 61","OBJECT_ID":"1990-050C","EPOCH":"2026-03-09T12:11:25.917504","MEAN_MOTION":13.6196417,"ECCENTRICITY":0.0883009,"INCLINATION":63.2938,"RA_OF_ASC_NODE":120.5629,"ARG_OF_PERICENTER":83.2372,"MEAN_ANOMALY":286.8223,"EPHEMERIS_TYPE":0,"CLASSIFICATION_TYPE":"U","NORAD_CAT_ID":20691,"ELEMENT_SET_NO":999,"REV_AT_EPOCH":9272,"BSTAR":0.00024937203,"MEAN_MOTION_DOT":3.372e-5,"MEAN_MOTION_DDOT":0}]
